station_code,stn,name,name_en,pref,address,lat,lng,att,geo3x3,src
,A6,羅臼,RAUSU,北海道,目梨郡 羅臼町,44°1′N,145°12′E,-,E9273277188,https://www.data.jma.go.jp/kaiyou/db/tide/suisan/suisan.php?stn=A6
101803,NM,根室,NEMURO,北海道,根室市 海岸町２丁目,43°21′N,145°35′E,-,E9273222358,https://www.data.jma.go.jp/kaiyou/db/tide/suisan/suisan.php?stn=NM
101102,KE,枝幸,ESASHI,北海道,枝幸郡 枝幸町 幸町,44°56′N,142°35′E,-,E9272725518,https://www.data.jma.go.jp/kaiyou/db/tide/suisan/suisan.php?stn=KE
101701,A0,紋別,MONBETSU,北海道,紋別市 弁天町,44°21′N,143°22′E,-,E9272552631,https://www.data.jma.go.jp/kaiyou/db/tide/suisan/suisan.php?stn=A0
101731,AS,網走,ABASHIRI,北海道,網走市 港町,44°1′N,144°17′E,-69.3(cm),E9272398178,https://www.data.jma.go.jp/kaiyou/db/tide/suisan/suisan.php?stn=AS
101131,WN,稚内,WAKKANAI,北海道,稚内市 新港町,45°24′N,141°41′E,-1.8(cm),E9271976227,https://www.data.jma.go.jp/kaiyou/db/tide/suisan/suisan.php?stn=WN
101104,F3,沓形,KUTSUGATA,北海道,利尻郡 利尻町 沓形,45°11′N,141°8′E,-,E9271855643,https://www.data.jma.go.jp/kaiyou/db/tide/suisan/suisan.php?stn=F3
101381,B2,留萌,RUMOI,北海道,留萌市 大町１丁目,43°57′N,141°38′E,-,E9271375655,https://www.data.jma.go.jp/kaiyou/db/tide/suisan/suisan.php?stn=B2
101831,HN,花咲,HANASAKI,北海道,根室市 花咲港,43°17′N,145°34′E,-81.5(cm),E9249888536,https://www.data.jma.go.jp/kaiyou/db/tide/suisan/suisan.php?stn=HN
101903,KP,霧多布,KIRITAPPU,北海道,厚岸郡 浜中町 霧多布,43°5′N,145°7′E,-,E9249769785,https://www.data.jma.go.jp/kaiyou/db/tide/suisan/suisan.php?stn=KP
101931,KR,釧路,KUSHIRO,北海道,釧路市 港町,42°59′N,144°22′E,-89.6(cm),E9248966718,https://www.data.jma.go.jp/kaiyou/db/tide/suisan/suisan.php?stn=KR
102082,B1,十勝,TOKACHI,北海道,広尾郡 広尾町 会所前,42°18′N,143°19′E,-,E9248558463,https://www.data.jma.go.jp/kaiyou/db/tide/suisan/suisan.php?stn=B1
102282,A9,浦河,URAKAWA,北海道,浦河郡 浦河町 大通１丁目,42°10′N,142°46′E,-,E9248461865,https://www.data.jma.go.jp/kaiyou/db/tide/suisan/suisan.php?stn=A9
102101,C8,苫小牧東,TOMAKOMAIHIGASHI,北海道,勇払郡 厚真町 浜厚真,42°36′N,141°49′E,-,E9247922118,https://www.data.jma.go.jp/kaiyou/db/tide/suisan/suisan.php?stn=C8
102102,TM,苫小牧西,TOMAKOMAINISHI,北海道,苫小牧市 汐見町１丁目,42°38′N,141°37′E,-,E9247912566,https://www.data.jma.go.jp/kaiyou/db/tide/suisan/suisan.php?stn=TM
101402,IK,石狩新港,ISHIKARISHINKO,北海道,石狩市 新港東４丁目,43°13′N,141°18′E,-,E9247894681,https://www.data.jma.go.jp/kaiyou/db/tide/suisan/suisan.php?stn=IK
101631,B3,小樽,OTARU,北海道,小樽市 色内３丁目,43°12′N,141°0′E,-2.0(cm),E9247884425,https://www.data.jma.go.jp/kaiyou/db/tide/suisan/suisan.php?stn=B3
101603,Z8,忍路,OSHORO,北海道,小樽市 忍路１丁目,43°13′N,140°52′E,-8.5(cm),E9247875583,https://www.data.jma.go.jp/kaiyou/db/tide/suisan/suisan.php?stn=Z8
101602,B5,岩内,IWANAI,北海道,岩内郡 岩内町 御崎,42°59′N,140°31′E,-,E9247764738,https://www.data.jma.go.jp/kaiyou/db/tide/suisan/suisan.php?stn=B5
,B6,寿都,SUTTSU,北海道,寿都郡 寿都町,42°48′N,140°14′E,-,E9247719658,https://www.data.jma.go.jp/kaiyou/db/tide/suisan/suisan.php?stn=B6
102105,SO,白老,SHIRAOI,北海道,白老郡 白老町 石山,42°31′N,141°19′E,-,E9247597339,https://www.data.jma.go.jp/kaiyou/db/tide/suisan/suisan.php?stn=SO
102103,A8,室蘭,MURORAN,北海道,室蘭市 祝津町１丁目,42°21′N,140°57′E,-,E9247573226,https://www.data.jma.go.jp/kaiyou/db/tide/suisan/suisan.php?stn=A8
102305,A3,森,MORI,北海道,茅部郡 森町 港町,42°7′N,140°36′E,-,E9247462168,https://www.data.jma.go.jp/kaiyou/db/tide/suisan/suisan.php?stn=A3
102481,ES,江差,ESASHI,北海道,檜山郡 江差町 中歌町,41°52′N,140°8′E,-,E9247412265,https://www.data.jma.go.jp/kaiyou/db/tide/suisan/suisan.php?stn=ES
113131,SH,下北,SHIMOKITA,青森県,むつ市 関根,41°22′N,141°14′E,-77.6(cm),E9247253339,https://www.data.jma.go.jp/kaiyou/db/tide/suisan/suisan.php?stn=SH
,B4,大間,OMA,青森県,下北郡 大間町,41°32′N,140°54′E,-,E9247248362,https://www.data.jma.go.jp/kaiyou/db/tide/suisan/suisan.php?stn=B4
,Q2,大湊,OMINATO,青森県,むつ市,41°15′N,141°9′E,-,E9247225933,https://www.data.jma.go.jp/kaiyou/db/tide/suisan/suisan.php?stn=Q2
102331,HK,函館,HAKODATE,北海道,函館市 海岸町,41°47′N,140°43′E,-72.6(cm),E9247199345,https://www.data.jma.go.jp/kaiyou/db/tide/suisan/suisan.php?stn=HK
,Q0,吉岡,YOSHIOKA,北海道,松前郡 福島町,41°27′N,140°14′E,-,E9247146352,https://www.data.jma.go.jp/kaiyou/db/tide/suisan/suisan.php?stn=Q0
,A5,松前,MATSUMAE,北海道,松前郡 松前町,41°25′N,140°6′E,-,E9247142726,https://www.data.jma.go.jp/kaiyou/db/tide/suisan/suisan.php?stn=A5
113136,Q1,竜飛,TAPPI,青森県,東津軽郡 外ヶ浜町 三厩梨ノ木間,41°15′N,140°23′E,-22.7(cm),E9247125833,https://www.data.jma.go.jp/kaiyou/db/tide/suisan/suisan.php?stn=Q1
113109,HG,八戸港,HACHINOHEKO,青森県,八戸市 鮫町,40°32′N,141°33′E,-,E9244914988,https://www.data.jma.go.jp/kaiyou/db/tide/suisan/suisan.php?stn=HG
,HC,八戸,HACHINOHE,青森県,八戸市 新湊３丁目,40°32′N,141°32′E,-,E9244914899,https://www.data.jma.go.jp/kaiyou/db/tide/suisan/suisan.php?stn=HC
113151,XS,むつ小川原,MUTSUOGAWARA,青森県,上北郡 六ヶ所村 鷹架,40°56′N,141°23′E,-,E9244892954,https://www.data.jma.go.jp/kaiyou/db/tide/suisan/suisan.php?stn=XS
113108,ZA,浅虫,ASAMUSHI,青森県,青森市 浅虫,40°54′N,140°52′E,-23.4(cm),E9244872529,https://www.data.jma.go.jp/kaiyou/db/tide/suisan/suisan.php?stn=ZA
113103,AO,青森,AOMORI,青森県,青森市 港町,40°50′N,140°46′E,-,E9244847496,https://www.data.jma.go.jp/kaiyou/db/tide/suisan/suisan.php?stn=AO
113351,XT,久慈,KUJI,岩手県,久慈市 長内町,40°12′N,141°48′E,-,E9244681986,https://www.data.jma.go.jp/kaiyou/db/tide/suisan/suisan.php?stn=XT
113331,MY,宮古,MIYAKO,岩手県,宮古市 日立浜町,39°39′N,141°59′E,-86.5(cm),E9244631173,https://www.data.jma.go.jp/kaiyou/db/tide/suisan/suisan.php?stn=MY
113281,S1,秋田,AKITA,秋田県,秋田市 土崎西１丁目,39°45′N,140°4′E,-,E9244414651,https://www.data.jma.go.jp/kaiyou/db/tide/suisan/suisan.php?stn=S1
113334,Q6,釜石,KAMAISHI,岩手県,釜石市 魚河岸町,39°16′N,141°53′E,-95.4(cm),E9244355683,https://www.data.jma.go.jp/kaiyou/db/tide/suisan/suisan.php?stn=Q6
113332,OF,大船渡,OFUNATO,岩手県,大船渡市 赤崎町,39°1′N,141°45′E,-103.5(cm),E9244324468,https://www.data.jma.go.jp/kaiyou/db/tide/suisan/suisan.php?stn=OF
113431,AY,鮎川,AYUKAWA,宮城県,石巻市 鮎川浜,38°18′N,141°30′E,-115.2(cm),E9241914764,https://www.data.jma.go.jp/kaiyou/db/tide/suisan/suisan.php?stn=AY
113404,E6,石巻,ISHINOMAKI,宮城県,石巻市 西浜町地先,38°24′N,141°16′E,-,E9241861215,https://www.data.jma.go.jp/kaiyou/db/tide/suisan/suisan.php?stn=E6
,SG,塩釜,SHIOGAMA,宮城県,塩釜市,38°19′N,141°2′E,-,E9241827226,https://www.data.jma.go.jp/kaiyou/db/tide/suisan/suisan.php?stn=SG
113405,SD,仙台新港,SENDAISHINKO,宮城県,仙台市 宮城野区 港３丁目,38°16′N,141°0′E,-,E9241824428,https://www.data.jma.go.jp/kaiyou/db/tide/suisan/suisan.php?stn=SD
113601,ZM,相馬,SOMA,福島県,相馬市 原釜,37°50′N,140°58′E,-100.1(cm),E9241549346,https://www.data.jma.go.jp/kaiyou/db/tide/suisan/suisan.php?stn=ZM
113631,ON,小名浜,ONAHAMA,福島県,いわき市 小名浜,36°56′N,140°54′E,-97.2(cm),E9241242392,https://www.data.jma.go.jp/kaiyou/db/tide/suisan/suisan.php?stn=ON
,D1,日立,HITACHI,茨城県,日立市,36°30′N,140°38′E,-,E9217792977,https://www.data.jma.go.jp/kaiyou/db/tide/suisan/suisan.php?stn=D1
124031,D3,大洗,OARAI,茨城県,東茨城郡 大洗町 港中央,36°18′N,140°34′E,-,E9217764659,https://www.data.jma.go.jp/kaiyou/db/tide/suisan/suisan.php?stn=D3
124003,D2,鹿島,KASHIMA,茨城県,神栖市 居切,35°56′N,140°42′E,-,E9217733228,https://www.data.jma.go.jp/kaiyou/db/tide/suisan/suisan.php?stn=D2
124571,CS,銚子漁港,CHOSHIGYOKO,千葉県,銚子市 川口町２丁目,35°45′N,140°52′E,-,E9217572859,https://www.data.jma.go.jp/kaiyou/db/tide/suisan/suisan.php?stn=CS
,CB,千葉港,CHIBAKO,千葉県,千葉市 中央区,35°36′N,140°6′E,-,E9217448126,https://www.data.jma.go.jp/kaiyou/db/tide/suisan/suisan.php?stn=CB
124533,QL,千葉,CHIBA,千葉県,市原市 五井,35°34′N,140°3′E,-113.0(cm),E9217444598,https://www.data.jma.go.jp/kaiyou/db/tide/suisan/suisan.php?stn=QL
124502,ZF,勝浦,KATSUURA,千葉県,勝浦市 興津,35°8′N,140°15′E,-95.3(cm),E9217187412,https://www.data.jma.go.jp/kaiyou/db/tide/suisan/suisan.php?stn=ZF
102401,SE,瀬棚,SETANA,北海道,久遠郡 せたな町 瀬棚区 本町,42°27′N,139°51′E,-,E9169695185,https://www.data.jma.go.jp/kaiyou/db/tide/suisan/suisan.php?stn=SE
102404,OR,奥尻港,OKUSHIRIKO,北海道,奥尻郡 奥尻町 奥尻,42°10′N,139°31′E,-,E9169651754,https://www.data.jma.go.jp/kaiyou/db/tide/suisan/suisan.php?stn=OR
102403,ZP,奥尻,OKUSHIRI,北海道,奥尻郡 奥尻町 松江,42°5′N,139°29′E,4.3(cm),E9169619942,https://www.data.jma.go.jp/kaiyou/db/tide/suisan/suisan.php?stn=ZP
113132,FK,深浦,FUKAURA,青森県,西津軽郡 深浦町 深浦,40°39′N,139°56′E,11.2(cm),E9166963426,https://www.data.jma.go.jp/kaiyou/db/tide/suisan/suisan.php?stn=FK
,S2,船川港,FUNAKAWAKO,秋田県,男鹿市,39°55′N,139°51′E,-,E9166662455,https://www.data.jma.go.jp/kaiyou/db/tide/suisan/suisan.php?stn=S2
113201,ZI,男鹿,OGA,秋田県,男鹿市 戸賀塩浜,39°57′N,139°42′E,9.6(cm),E9166653871,https://www.data.jma.go.jp/kaiyou/db/tide/suisan/suisan.php?stn=ZI
113503,ZQ,飛島,TOBISHIMA,山形県,酒田市 飛島,39°11′N,139°33′E,-18.1(cm),E9166351583,https://www.data.jma.go.jp/kaiyou/db/tide/suisan/suisan.php?stn=ZQ
113581,S9,酒田,SAKATA,山形県,酒田市 宮野浦,38°55′N,139°49′E,-,E9166331613,https://www.data.jma.go.jp/kaiyou/db/tide/suisan/suisan.php?stn=S9
113502,ZB,鼠ヶ関,NEZUGASEKI,山形県,鶴岡市 鼠ヶ関,38°34′N,139°33′E,9.9(cm),E9163957229,https://www.data.jma.go.jp/kaiyou/db/tide/suisan/suisan.php?stn=ZB
145434,QR,粟島,AWASHIMA,新潟県,岩船郡 粟島浦村 内浦,38°28′N,139°15′E,-9.6(cm),E9163863959,https://www.data.jma.go.jp/kaiyou/db/tide/suisan/suisan.php?stn=QR
145431,S0,佐渡,SADO,新潟県,佐渡市 鷲崎,38°19′N,138°31′E,-13.9(cm),E9163739336,https://www.data.jma.go.jp/kaiyou/db/tide/suisan/suisan.php?stn=S0
145408,I5,新潟東港,NIIGATAHIGASHIKO,新潟県,新潟市 北区 太郎代,37°59′N,139°13′E,-,E9163593888,https://www.data.jma.go.jp/kaiyou/db/tide/suisan/suisan.php?stn=I5
145481,S6,新潟西港,NIIGATANISHIKO,新潟県,新潟市 中央区 入船町,37°56′N,139°4′E,-,E9163591536,https://www.data.jma.go.jp/kaiyou/db/tide/suisan/suisan.php?stn=S6
,RZ,両津,RYOTSU,新潟県,佐渡市,38°5′N,138°26′E,-,E9163498369,https://www.data.jma.go.jp/kaiyou/db/tide/suisan/suisan.php?stn=RZ
145406,ZN,小木,OGI,新潟県,佐渡市 小木町,37°49′N,138°17′E,-19.6(cm),E9163464787,https://www.data.jma.go.jp/kaiyou/db/tide/suisan/suisan.php?stn=ZN
145402,ZC,柏崎,KASHIWAZAKI,新潟県,柏崎市 鯨波,37°21′N,138°31′E,0.9(cm),E9163199399,https://www.data.jma.go.jp/kaiyou/db/tide/suisan/suisan.php?stn=ZC
,T3,直江津,NAOETSU,新潟県,上越市,37°11′N,138°15′E,-,E9163183375,https://www.data.jma.go.jp/kaiyou/db/tide/suisan/suisan.php?stn=T3
145631,SZ,能登,NOTO,石川県,珠洲市 長橋町,37°30′N,137°9′E,6.0(cm),E9162615242,https://www.data.jma.go.jp/kaiyou/db/tide/suisan/suisan.php?stn=SZ
145502,I7,生地,IKUJI,富山県,黒部市 生地,36°53′N,137°25′E,-,E9162328598,https://www.data.jma.go.jp/kaiyou/db/tide/suisan/suisan.php?stn=I7
145531,TY,富山,TOYAMA,富山県,富山市 草島,36°46′N,137°13′E,8.8(cm),E9162316158,https://www.data.jma.go.jp/kaiyou/db/tide/suisan/suisan.php?stn=TY
145503,SN,新湊,SHINMINATO,富山県,射水市 堀岡新明神,36°47′N,137°7′E,-,E9162314639,https://www.data.jma.go.jp/kaiyou/db/tide/suisan/suisan.php?stn=SN
145553,XQ,伏木富山,FUSHIKITOYAMA,富山県,高岡市 伏木錦町,36°48′N,137°4′E,-,E9162314574,https://www.data.jma.go.jp/kaiyou/db/tide/suisan/suisan.php?stn=XQ
145602,Z7,輪島,WAJIMA,石川県,輪島市 輪島崎町,37°24′N,136°54′E,4.6(cm),E9162298871,https://www.data.jma.go.jp/kaiyou/db/tide/suisan/suisan.php?stn=Z7
145651,XO,七尾,NANAO,石川県,七尾市 府中町,37°3′N,136°58′E,-,E9162266487,https://www.data.jma.go.jp/kaiyou/db/tide/suisan/suisan.php?stn=XO
124431,TK,東京,TOKYO,東京都,中央区 晴海５丁目,35°39′N,139°46′E,-115.4(cm),E9139667488,https://www.data.jma.go.jp/kaiyou/db/tide/suisan/suisan.php?stn=TK
,KW,川崎,KAWASAKI,神奈川県,川崎市 川崎区,35°31′N,139°45′E,-,E9139656332,https://www.data.jma.go.jp/kaiyou/db/tide/suisan/suisan.php?stn=KW
124602,YK,京浜港,KEIHINKO,神奈川県,横浜市 神奈川区 山内町,35°28′N,139°38′E,-,E9139652529,https://www.data.jma.go.jp/kaiyou/db/tide/suisan/suisan.php?stn=YK
124634,QS,横浜,YOKOHAMA,神奈川県,横浜市 中区 新港町１丁目,35°27′N,139°39′E,-111.1(cm),E9139652349,https://www.data.jma.go.jp/kaiyou/db/tide/suisan/suisan.php?stn=QS
,HM,本牧,HONMOKU,神奈川県,横浜市 中区,35°26′N,139°40′E,-,E9139652332,https://www.data.jma.go.jp/kaiyou/db/tide/suisan/suisan.php?stn=HM
,KZ,木更津,KISARAZU,千葉県,木更津市,35°22′N,139°55′E,-,E9139638369,https://www.data.jma.go.jp/kaiyou/db/tide/suisan/suisan.php?stn=KZ
124635,QN,横須賀,YOKOSUKA,神奈川県,横須賀市 西逸見町,35°17′N,139°39′E,-103.0(cm),E9139625349,https://www.data.jma.go.jp/kaiyou/db/tide/suisan/suisan.php?stn=QN
,D8,湘南港,SHONANKO,神奈川県,藤沢市,35°18′N,139°29′E,-,E9139616615,https://www.data.jma.go.jp/kaiyou/db/tide/suisan/suisan.php?stn=D8
124631,OD,小田原,ODAWARA,神奈川県,小田原市 早川地先,35°14′N,139°9′E,-94.9(cm),E9139532671,https://www.data.jma.go.jp/kaiyou/db/tide/suisan/suisan.php?stn=OD
,TT,館山,TATEYAMA,千葉県,館山市,34°59′N,139°51′E,-,E9139392458,https://www.data.jma.go.jp/kaiyou/db/tide/suisan/suisan.php?stn=TT
124604,Z1,油壺,ABURATSUBO,神奈川県,三浦市 三崎町,35°10′N,139°37′E,-88.7(cm),E9139388817,https://www.data.jma.go.jp/kaiyou/db/tide/suisan/suisan.php?stn=Z1
124531,MR,布良,MERA,千葉県,館山市 布良,34°55′N,139°50′E,-81.2(cm),E9139367936,https://www.data.jma.go.jp/kaiyou/db/tide/suisan/suisan.php?stn=MR
124432,OK,岡田,OKADA,東京都,大島町 岡田,34°47′N,139°23′E,-86.0(cm),E9139345252,https://www.data.jma.go.jp/kaiyou/db/tide/suisan/suisan.php?stn=OK
135032,UC,内浦,UCHIURA,静岡県,沼津市 内浦長浜網代,35°1′N,138°53′E,-83.4(cm),E9139282876,https://www.data.jma.go.jp/kaiyou/db/tide/suisan/suisan.php?stn=UC
135001,Z3,伊東,ITO,静岡県,伊東市 富戸,34°54′N,139°8′E,-89.0(cm),E9139268557,https://www.data.jma.go.jp/kaiyou/db/tide/suisan/suisan.php?stn=Z3
135008,Z4,田子,TAGO,静岡県,賀茂郡 西伊豆町 田子,34°48′N,138°46′E,-78.2(cm),E9139254177,https://www.data.jma.go.jp/kaiyou/db/tide/suisan/suisan.php?stn=Z4
135011,D6,下田,SHIMODA,静岡県,下田市 柿崎弁天島地先,34°41′N,138°58′E,-,E9139229881,https://www.data.jma.go.jp/kaiyou/db/tide/suisan/suisan.php?stn=D6
,QK,南伊豆,MINAMIIZU,静岡県,賀茂郡 南伊豆町,34°38′N,138°53′E,-,E9139228276,https://www.data.jma.go.jp/kaiyou/db/tide/suisan/suisan.php?stn=QK
135031,G9,石廊崎,IROZAKI,静岡県,賀茂郡 南伊豆町 石廊崎,34°37′N,138°51′E,-84.3(cm),E9139228117,https://www.data.jma.go.jp/kaiyou/db/tide/suisan/suisan.php?stn=G9
135033,SM,清水港,SHIMIZUMINATO,静岡県,静岡市 清水区 三保,35°1′N,138°31′E,-67.5(cm),E9139193996,https://www.data.jma.go.jp/kaiyou/db/tide/suisan/suisan.php?stn=SM
135009,Z5,焼津,YAIZU,静岡県,焼津市 中港６丁目,34°52′N,138°20′E,-67.8(cm),E9139167343,https://www.data.jma.go.jp/kaiyou/db/tide/suisan/suisan.php?stn=Z5
135034,OM,御前崎,OMAEZAKI,静岡県,御前崎市 港,34°37′N,138°13′E,-85.1(cm),E9139129139,https://www.data.jma.go.jp/kaiyou/db/tide/suisan/suisan.php?stn=OM
145681,T1,金沢,KANAZAWA,石川県,金沢市 大野町４丁目,36°37′N,136°36′E,-,E9138887614,https://www.data.jma.go.jp/kaiyou/db/tide/suisan/suisan.php?stn=T1
145701,ZG,三国,MIKUNI,福井県,坂井市 三国町,36°15′N,136°9′E,16.7(cm),E9138762794,https://www.data.jma.go.jp/kaiyou/db/tide/suisan/suisan.php?stn=ZG
145751,XM,敦賀,TSURUGA,福井県,敦賀市 川崎町地先,35°40′N,136°4′E,-,E9138467756,https://www.data.jma.go.jp/kaiyou/db/tide/suisan/suisan.php?stn=XM
135107,G4,三河,MIKAWA,愛知県,豊橋市 神野ふ頭,34°44′N,137°19′E,-,E9138351545,https://www.data.jma.go.jp/kaiyou/db/tide/suisan/suisan.php?stn=G4
,G5,形原,KATAHARA,愛知県,蒲郡市,34°47′N,137°11′E,-,E9138345343,https://www.data.jma.go.jp/kaiyou/db/tide/suisan/suisan.php?stn=G5
135035,MI,舞阪,MAISAKA,静岡県,浜松市 西区 舞阪町,34°41′N,137°37′E,-57.8(cm),E9138338772,https://www.data.jma.go.jp/kaiyou/db/tide/suisan/suisan.php?stn=MI
135132,I4,赤羽根,AKABANE,愛知県,田原市 池尻町,34°36′N,137°11′E,-102.4(cm),E9138315973,https://www.data.jma.go.jp/kaiyou/db/tide/suisan/suisan.php?stn=I4
135131,NG,名古屋,NAGOYA,愛知県,名古屋市 港区 港町,35°5′N,136°53′E,-130.8(cm),E9138295727,https://www.data.jma.go.jp/kaiyou/db/tide/suisan/suisan.php?stn=NG
135301,G3,四日市港,YOKKAICHIKO,三重県,四日市市 千歳町,34°58′N,136°38′E,-,E9138282413,https://www.data.jma.go.jp/kaiyou/db/tide/suisan/suisan.php?stn=G3
135102,G8,衣浦,KINUURA,愛知県,半田市 11号地,34°53′N,136°57′E,-,E9138268398,https://www.data.jma.go.jp/kaiyou/db/tide/suisan/suisan.php?stn=G8
135106,ZD,鬼崎,ONIZAKI,愛知県,常滑市 港町２丁目,34°54′N,136°49′E,-125.7(cm),E9138267469,https://www.data.jma.go.jp/kaiyou/db/tide/suisan/suisan.php?stn=ZD
135331,TB,鳥羽,TOBA,三重県,鳥羽市 堅神町,34°29′N,136°49′E,-113.3(cm),E9138231463,https://www.data.jma.go.jp/kaiyou/db/tide/suisan/suisan.php?stn=TB
166832,SA,西郷,SAIGO,島根県,隠岐郡 隠岐の島町 港町,36°12′N,133°20′E,-3.4(cm),E9137741177,https://www.data.jma.go.jp/kaiyou/db/tide/suisan/suisan.php?stn=SA
156131,MZ,舞鶴,MAIZURU,京都府,舞鶴市 浜,35°29′N,135°23′E,10.8(cm),E9137661694,https://www.data.jma.go.jp/kaiyou/db/tide/suisan/suisan.php?stn=MZ
,T2,宮津,MIYAZU,京都府,宮津市,35°32′N,135°12′E,-,E9137655371,https://www.data.jma.go.jp/kaiyou/db/tide/suisan/suisan.php?stn=T2
156307,T6,津居山,TSUIYAMA,兵庫県,豊岡市 小島,35°39′N,134°50′E,-,E9137647497,https://www.data.jma.go.jp/kaiyou/db/tide/suisan/suisan.php?stn=T6
166902,ZE,田後,TAJIRI,鳥取県,岩美郡 岩美町 田後,35°36′N,134°19′E,11.1(cm),E9137549335,https://www.data.jma.go.jp/kaiyou/db/tide/suisan/suisan.php?stn=ZE
,AM,尼崎,AMAGASAKI,兵庫県,尼崎市,34°42′N,135°24′E,-,E9137362119,https://www.data.jma.go.jp/kaiyou/db/tide/suisan/suisan.php?stn=AM
,J5,西宮,NISHINOMIYA,兵庫県,西宮市,34°43′N,135°20′E,-,E9137361199,https://www.data.jma.go.jp/kaiyou/db/tide/suisan/suisan.php?stn=J5
156232,OS,大阪,OSAKA,大阪府,大阪市 港区 築港３丁目,34°39′N,135°26′E,-75.8(cm),E9137338555,https://www.data.jma.go.jp/kaiyou/db/tide/suisan/suisan.php?stn=OS
,SI,堺,SAKAI,大阪府,堺市 堺区,34°36′N,135°28′E,-,E9137335991,https://www.data.jma.go.jp/kaiyou/db/tide/suisan/suisan.php?stn=SI
,IO,泉大津,IZUMIOTSU,大阪府,泉大津市,34°31′N,135°24′E,-,E9137332749,https://www.data.jma.go.jp/kaiyou/db/tide/suisan/suisan.php?stn=IO
,J2,岸和田,KISHIWADA,大阪府,岸和田市,34°28′N,135°22′E,-,E9137331375,https://www.data.jma.go.jp/kaiyou/db/tide/suisan/suisan.php?stn=J2
156331,KB,神戸,KOBE,兵庫県,神戸市 中央区 波止場町,34°41′N,135°11′E,-73.9(cm),E9137328881,https://www.data.jma.go.jp/kaiyou/db/tide/suisan/suisan.php?stn=KB
,AK,明石,AKASHI,兵庫県,明石市,34°39′N,134°59′E,-,E9137319445,https://www.data.jma.go.jp/kaiyou/db/tide/suisan/suisan.php?stn=AK
,EI,江井,EI,兵庫県,淡路市,34°28′N,134°50′E,-,E9137311194,https://www.data.jma.go.jp/kaiyou/db/tide/suisan/suisan.php?stn=EI
156305,K1,姫路,飾磨,兵庫県,姫路市 飾磨区 須賀,34°47′N,134°40′E,-,E9137265153,https://www.data.jma.go.jp/kaiyou/db/tide/suisan/suisan.php?stn=K1
166605,SB,三蟠,SANBAN,岡山県,岡山市 中区 新築港,34°36′N,133°59′E,-,E9137135991,https://www.data.jma.go.jp/kaiyou/db/tide/suisan/suisan.php?stn=SB
166631,UN,宇野,UNO,岡山県,玉野市 宇野１丁目,34°29′N,133°57′E,-118.7(cm),E9137132552,https://www.data.jma.go.jp/kaiyou/db/tide/suisan/suisan.php?stn=UN
,MM,水島,MIZUSHIMA,岡山県,倉敷市,34°32′N,133°44′E,-,E9137125329,https://www.data.jma.go.jp/kaiyou/db/tide/suisan/suisan.php?stn=MM
166606,LG,乙島,OTOSHIMA,岡山県,倉敷市 玉島 乙島,34°30′N,133°41′E,-,E9137122731,https://www.data.jma.go.jp/kaiyou/db/tide/suisan/suisan.php?stn=LG
124433,MJ,三宅島,坪田,東京都,三宅村 坪田船戸,34°3′N,139°33′E,-74.1(cm),E9136954259,https://www.data.jma.go.jp/kaiyou/db/tide/suisan/suisan.php?stn=MJ
124436,QP,三宅島,阿古,東京都,三宅村 阿古,34°4′N,139°29′E,-63.4(cm),E9136946618,https://www.data.jma.go.jp/kaiyou/db/tide/suisan/suisan.php?stn=QP
124435,QO,神津島,KOZUSHIMA,東京都,神津島村 神津島港,34°13′N,139°8′E,-97.0(cm),E9136892281,https://www.data.jma.go.jp/kaiyou/db/tide/suisan/suisan.php?stn=QO
124437,QQ,八丈島,神湊,東京都,八丈町 三根,33°8′N,139°48′E,-64.7(cm),E9136637234,https://www.data.jma.go.jp/kaiyou/db/tide/suisan/suisan.php?stn=QQ
,D4,八丈島,八重根,東京都,八丈町,33°6′N,139°46′E,-,E9136634488,https://www.data.jma.go.jp/kaiyou/db/tide/suisan/suisan.php?stn=D4
135332,OW,尾鷲,OWASE,三重県,尾鷲市 天満浦,34°5′N,136°12′E,-94.1(cm),E9135765685,https://www.data.jma.go.jp/kaiyou/db/tide/suisan/suisan.php?stn=OW
135333,KN,熊野,KUMANO,三重県,熊野市 遊木町,33°56′N,136°10′E,-88.7(cm),E9135738843,https://www.data.jma.go.jp/kaiyou/db/tide/suisan/suisan.php?stn=KN
156531,UR,浦神,URAGAMI,和歌山県,東牟婁郡 那智勝浦町 浦神,33°34′N,135°54′E,-81.1(cm),E9135485422,https://www.data.jma.go.jp/kaiyou/db/tide/suisan/suisan.php?stn=UR
156532,KS,串本,KUSHIMOTO,和歌山県,東牟婁郡 串本町 串本,33°29′N,135°46′E,-75.1(cm),E9135473297,https://www.data.jma.go.jp/kaiyou/db/tide/suisan/suisan.php?stn=KS
,KK,関空島,KANKUJIMA,大阪府,泉南市,34°26′N,135°12′E,-,E9134988947,https://www.data.jma.go.jp/kaiyou/db/tide/suisan/suisan.php?stn=KK
156231,TN,淡輪,TANNOWA,大阪府,泉南郡 岬町 淡輪,34°20′N,135°11′E,-79.3(cm),E9134985587,https://www.data.jma.go.jp/kaiyou/db/tide/suisan/suisan.php?stn=TN
156535,WY,和歌山,WAKAYAMA,和歌山県,和歌山市 湊青岸,34°13′N,135°9′E,-96.0(cm),E9134982172,https://www.data.jma.go.jp/kaiyou/db/tide/suisan/suisan.php?stn=WY
156332,ST,洲本,SUMOTO,兵庫県,洲本市 海岸通１丁目,34°21′N,134°54′E,-74.6(cm),E9134975747,https://www.data.jma.go.jp/kaiyou/db/tide/suisan/suisan.php?stn=ST
156508,Z9,海南,KAINAN,和歌山県,海南市 冷水,34°9′N,135°12′E,-100.0(cm),E9134958617,https://www.data.jma.go.jp/kaiyou/db/tide/suisan/suisan.php?stn=Z9
,H1,下津,SHIMOTSU,和歌山県,海南市,34°7′N,135°8′E,-,E9134957323,https://www.data.jma.go.jp/kaiyou/db/tide/suisan/suisan.php?stn=H1
156534,GB,御坊,GOBO,和歌山県,御坊市 名田町,33°51′N,135°10′E,-97.1(cm),E9134925738,https://www.data.jma.go.jp/kaiyou/db/tide/suisan/suisan.php?stn=GB
177131,KM,小松島,KOMATSUSHIMA,徳島県,小松島市 小松島町,34°1′N,134°35′E,-85.1(cm),E9134861753,https://www.data.jma.go.jp/kaiyou/db/tide/suisan/suisan.php?stn=KM
,J6,橘,TACHIBANA,徳島県,阿南市,33°52′N,134°38′E,-,E9134834987,https://www.data.jma.go.jp/kaiyou/db/tide/suisan/suisan.php?stn=J6
177132,AW,阿波由岐,AWAYUKI,徳島県,海部郡 美波町 西由岐,33°46′N,134°36′E,-90.5(cm),E9134831818,https://www.data.jma.go.jp/kaiyou/db/tide/suisan/suisan.php?stn=AW
,HW,日和佐,HIWASA,徳島県,海部郡 美波町,33°43′N,134°33′E,-,E9134823354,https://www.data.jma.go.jp/kaiyou/db/tide/suisan/suisan.php?stn=HW
177231,TA,高松,TAKAMATSU,香川県,高松市 北浜町,34°21′N,134°3′E,-123.3(cm),E9134796948,https://www.data.jma.go.jp/kaiyou/db/tide/suisan/suisan.php?stn=TA
177204,J8,与島,YOSHIMA,香川県,坂出市 与島町,34°23′N,133°49′E,-,E9134789383,https://www.data.jma.go.jp/kaiyou/db/tide/suisan/suisan.php?stn=J8
177206,AX,青木,AOKI,香川県,丸亀市 広島町,34°22′N,133°41′E,-,E9134788134,https://www.data.jma.go.jp/kaiyou/db/tide/suisan/suisan.php?stn=AX
177207,TX,多度津,TADOTSU,香川県,仲多度郡 多度津町 東浜,34°17′N,133°45′E,-,E9134786115,https://www.data.jma.go.jp/kaiyou/db/tide/suisan/suisan.php?stn=TX
,L8,伊予三島,IYOMISHIMA,愛媛県,四国中央市,33°59′N,133°33′E,-,E9134743536,https://www.data.jma.go.jp/kaiyou/db/tide/suisan/suisan.php?stn=L8
156533,SR,白浜,SHIRAHAMA,和歌山県,西牟婁郡 白浜町 堅田,33°41′N,135°23′E,-95.9(cm),E9134697937,https://www.data.jma.go.jp/kaiyou/db/tide/suisan/suisan.php?stn=SR
,L7,甲浦,KANNOURA,高知県,安芸郡 東洋町,33°33′N,134°18′E,-,E9134576343,https://www.data.jma.go.jp/kaiyou/db/tide/suisan/suisan.php?stn=L7
177431,MU,室戸岬,MUROTOMISAKI,高知県,室戸市 室戸岬町,33°16′N,134°10′E,-80.4(cm),E9134542721,https://www.data.jma.go.jp/kaiyou/db/tide/suisan/suisan.php?stn=MU
177432,KC,高知,KOCHI,高知県,高知市 浦戸,33°30′N,133°34′E,-95.9(cm),E9134473658,https://www.data.jma.go.jp/kaiyou/db/tide/suisan/suisan.php?stn=KC
166931,SK,境,SAKAI,鳥取県,境港市 境港,35°33′N,133°15′E,14.6(cm),E9129665639,https://www.data.jma.go.jp/kaiyou/db/tide/suisan/suisan.php?stn=SK
166831,HA,浜田,HAMADA,島根県,浜田市 大辻町,34°54′N,132°4′E,0.0(cm),E9129249568,https://www.data.jma.go.jp/kaiyou/db/tide/suisan/suisan.php?stn=HA
188109,ZK,須佐,SUSA,山口県,萩市 瓦浴,34°38′N,131°36′E,-13.5(cm),E9129129395,https://www.data.jma.go.jp/kaiyou/db/tide/suisan/suisan.php?stn=ZK
188434,N5,対馬比田勝,TSUSHIMAHITAKATSU,長崎県,対馬市 上対馬町,34°39′N,129°29′E,-47.6(cm),E9128138464,https://www.data.jma.go.jp/kaiyou/db/tide/suisan/suisan.php?stn=N5
,IZ,糸崎,ITOZAKI,広島県,三原市,34°24′N,133°5′E,-,E9126989662,https://www.data.jma.go.jp/kaiyou/db/tide/suisan/suisan.php?stn=IZ
,TH,竹原,TAKEHARA,広島県,竹原市,34°20′N,132°55′E,-,E9126984698,https://www.data.jma.go.jp/kaiyou/db/tide/suisan/suisan.php?stn=TH
,NI,新居浜,NIIHAMA,愛媛県,新居浜市,33°58′N,133°16′E,-,E9126963159,https://www.data.jma.go.jp/kaiyou/db/tide/suisan/suisan.php?stn=NI
,M0,今治市小島,IMABARISHIOSHIMA,愛媛県,今治市 来島（小島）,34°8′N,132°59′E,-,E9126958349,https://www.data.jma.go.jp/kaiyou/db/tide/suisan/suisan.php?stn=M0
177308,M1,来島航路,KURUSHIMAKORO,愛媛県,今治市 馬島,34°7′N,132°59′E,-,E9126958313,https://www.data.jma.go.jp/kaiyou/db/tide/suisan/suisan.php?stn=M1
,M3,波止浜,HASHIHAMA,愛媛県,今治市,34°6′N,132°56′E,-,E9126955754,https://www.data.jma.go.jp/kaiyou/db/tide/suisan/suisan.php?stn=M3
,L0,今治,IMABARI,愛媛県,今治市,34°4′N,133°0′E,-,E9126955638,https://www.data.jma.go.jp/kaiyou/db/tide/suisan/suisan.php?stn=L0
177331,MT,松山,MATSUYAMA,愛媛県,松山市 海岸通,33°52′N,132°43′E,-176.6(cm),E9126915888,https://www.data.jma.go.jp/kaiyou/db/tide/suisan/suisan.php?stn=MT
166744,Q8,広島,HIROSHIMA,広島県,広島市 南区 宇品海岸２丁目,34°21′N,132°28′E,-177.7(cm),E9126895857,https://www.data.jma.go.jp/kaiyou/db/tide/suisan/suisan.php?stn=Q8
166745,Q9,呉,KURE,広島県,呉市 宝町,34°14′N,132°33′E,-179.9(cm),E9126893528,https://www.data.jma.go.jp/kaiyou/db/tide/suisan/suisan.php?stn=Q9
,K5,萩,HAGI,山口県,萩市,34°26′N,131°25′E,-,E9126787948,https://www.data.jma.go.jp/kaiyou/db/tide/suisan/suisan.php?stn=K5
188146,QA,徳山,TOKUYAMA,山口県,周南市 那智町,34°2′N,131°48′E,-160.7(cm),E9126766211,https://www.data.jma.go.jp/kaiyou/db/tide/suisan/suisan.php?stn=QA
,J9,三田尻,MITAJIRI,山口県,防府市 新田,34°2′N,131°35′E,-,E9126756312,https://www.data.jma.go.jp/kaiyou/db/tide/suisan/suisan.php?stn=J9
188122,WH,宇部,UBE,山口県,宇部市 沖宇部,33°56′N,131°15′E,-,E9126718941,https://www.data.jma.go.jp/kaiyou/db/tide/suisan/suisan.php?stn=WH
,V7,須崎,SUSAKI,高知県,須崎市 浜町,33°23′N,133°18′E,-,E9126669238,https://www.data.jma.go.jp/kaiyou/db/tide/suisan/suisan.php?stn=V7
177407,ZH,久礼,KURE,高知県,高岡郡 中土佐町 久礼,33°20′N,133°15′E,-99.7(cm),E9126665666,https://www.data.jma.go.jp/kaiyou/db/tide/suisan/suisan.php?stn=ZH
177332,UW,宇和島,UWAJIMA,愛媛県,宇和島市 住吉３丁目,33°14′N,132°33′E,-114.6(cm),E9126563285,https://www.data.jma.go.jp/kaiyou/db/tide/suisan/suisan.php?stn=UW
188333,QC,大分,OITA,大分県,大分市 三佐,33°16′N,131°41′E,-114.7(cm),E9126461932,https://www.data.jma.go.jp/kaiyou/db/tide/suisan/suisan.php?stn=QC
188352,BP,別府,BEPPU,大分県,別府市 南石垣,33°18′N,131°30′E,-,E9126455318,https://www.data.jma.go.jp/kaiyou/db/tide/suisan/suisan.php?stn=BP
,L6,高知下田,KOCHISHIMODA,高知県,四万十市,32°56′N,133°0′E,-,E9126388698,https://www.data.jma.go.jp/kaiyou/db/tide/suisan/suisan.php?stn=L6
177433,TS,土佐清水,TOSASHIMIZU,高知県,土佐清水市 旭町３丁目,32°47′N,132°58′E,-87.3(cm),E9126382856,https://www.data.jma.go.jp/kaiyou/db/tide/suisan/suisan.php?stn=TS
,SU,片島,KATASHIMA,高知県,宿毛市,32°55′N,132°42′E,-,E9126378439,https://www.data.jma.go.jp/kaiyou/db/tide/suisan/suisan.php?stn=SU
188331,X5,佐伯,SAIKI,大分県,佐伯市 鶴見,32°57′N,131°58′E,-92.0(cm),E9126278845,https://www.data.jma.go.jp/kaiyou/db/tide/suisan/suisan.php?stn=X5
198705,Z6,細島,HOSOJIMA,宮崎県,日向市 細島町,32°26′N,131°40′E,-88.5(cm),E9126137673,https://www.data.jma.go.jp/kaiyou/db/tide/suisan/suisan.php?stn=Z6
188104,CF,長府,CHOFU,山口県,下関市 長府町,34°1′N,131°0′E,-,E9125962863,https://www.data.jma.go.jp/kaiyou/db/tide/suisan/suisan.php?stn=CF
188206,AH,青浜,AOHAMA,福岡県,北九州市 門司区 白野江,33°57′N,131°1′E,-,E9125938989,https://www.data.jma.go.jp/kaiyou/db/tide/suisan/suisan.php?stn=AH
188207,MO,門司,MOJI,福岡県,北九州市 門司区 西海岸通１丁目,33°57′N,130°57′E,-,E9125938778,https://www.data.jma.go.jp/kaiyou/db/tide/suisan/suisan.php?stn=MO
188181,A1,弟子待,DESHIMATSU,山口県,下関市 彦島弟子待町２丁目,33°56′N,130°56′E,-,E9125937952,https://www.data.jma.go.jp/kaiyou/db/tide/suisan/suisan.php?stn=A1
,DS,下関,SHIMONOSEKI,山口県,下関市 彦島弟子待町２丁目,33°56′N,130°56′E,-107.2(cm),E9125937952,https://www.data.jma.go.jp/kaiyou/db/tide/suisan/suisan.php?stn=DS
188121,HR,南風泊,HAEDOMARI,山口県,下関市 彦島西山町３丁目,33°57′N,130°53′E,-,E9125937797,https://www.data.jma.go.jp/kaiyou/db/tide/suisan/suisan.php?stn=HR
188119,TI,田ノ首,TANOKUBI,山口県,下関市 彦島田の首町１丁目,33°55′N,130°55′E,-,E9125937593,https://www.data.jma.go.jp/kaiyou/db/tide/suisan/suisan.php?stn=TI
188120,OH,大山の鼻,OYAMANOHANA,山口県,下関市 彦島塩浜町４丁目,33°55′N,130°54′E,-,E9125937573,https://www.data.jma.go.jp/kaiyou/db/tide/suisan/suisan.php?stn=OH
188205,N1,日明,HIAGARI,福岡県,北九州市 小倉北区 西港町,33°55′N,130°53′E,-,E9125937491,https://www.data.jma.go.jp/kaiyou/db/tide/suisan/suisan.php?stn=N1
188208,N0,砂津,SUNATSU,福岡県,北九州市 小倉北区 浅野３丁目,33°54′N,130°53′E,-,E9125937434,https://www.data.jma.go.jp/kaiyou/db/tide/suisan/suisan.php?stn=N0
188202,O3,苅田,KANDA,福岡県,京都郡 苅田町 港町,33°48′N,131°0′E,-,E9125935266,https://www.data.jma.go.jp/kaiyou/db/tide/suisan/suisan.php?stn=O3
188454,X3,郷ノ浦,GONOURA,長崎県,壱岐市 郷ノ浦町,33°45′N,129°41′E,-,E9125811593,https://www.data.jma.go.jp/kaiyou/db/tide/suisan/suisan.php?stn=X3
,O1,対馬,TSUSHIMA,長崎県,対馬市,34°16′N,129°19′E,-,E9125783756,https://www.data.jma.go.jp/kaiyou/db/tide/suisan/suisan.php?stn=O1
188439,QE,厳原,IZUHARA,長崎県,対馬市 厳原町,34°12′N,129°18′E,-84.5(cm),E9125782333,https://www.data.jma.go.jp/kaiyou/db/tide/suisan/suisan.php?stn=QE
188236,QF,博多,HAKATA,福岡県,福岡市 東区 東浜２丁目,33°37′N,130°24′E,-82.2(cm),E9125674874,https://www.data.jma.go.jp/kaiyou/db/tide/suisan/suisan.php?stn=QF
,O6,大牟田,OMUTA,福岡県,大牟田市 新港町,33°1′N,130°25′E,-,E9125611597,https://www.data.jma.go.jp/kaiyou/db/tide/suisan/suisan.php?stn=O6
188502,KA,唐津,KARATSU,佐賀県,唐津市 二夕子,33°28′N,129°58′E,-,E9125582143,https://www.data.jma.go.jp/kaiyou/db/tide/suisan/suisan.php?stn=KA
188505,ZL,仮屋,KARIYA,佐賀県,東松浦郡 玄海町 仮屋,33°28′N,129°51′E,-102.8(cm),E9125573341,https://www.data.jma.go.jp/kaiyou/db/tide/suisan/suisan.php?stn=ZL
188531,OU,大浦,OURA,佐賀県,藤津郡 太良町 大浦,32°59′N,130°13′E,-243.4(cm),E9125532181,https://www.data.jma.go.jp/kaiyou/db/tide/suisan/suisan.php?stn=OU
188438,QD,佐世保,SASEBO,長崎県,佐世保市 干尽町,33°9′N,129°43′E,-139.6(cm),E9125518175,https://www.data.jma.go.jp/kaiyou/db/tide/suisan/suisan.php?stn=QD
188453,X2,平戸瀬戸,HIRADOSETO,長崎県,平戸市 田平町,33°22′N,129°35′E,-,E9125466873,https://www.data.jma.go.jp/kaiyou/db/tide/suisan/suisan.php?stn=X2
188604,KU,熊本,KUMAMOTO,熊本県,熊本市 西区 沖新町,32°45′N,130°34′E,-,E9125373518,https://www.data.jma.go.jp/kaiyou/db/tide/suisan/suisan.php?stn=KU
,MS,三角,MISUMI,熊本県,宇城市 三角町,32°37′N,130°27′E,-,E9125344963,https://www.data.jma.go.jp/kaiyou/db/tide/suisan/suisan.php?stn=MS
188602,O5,八代,YATSUSHIRO,熊本県,八代市 港町,32°31′N,130°34′E,-,E9125343572,https://www.data.jma.go.jp/kaiyou/db/tide/suisan/suisan.php?stn=O5
188432,NS,長崎,NAGASAKI,長崎県,長崎市 松が枝町,32°44′N,129°52′E,-138.8(cm),E9125273359,https://www.data.jma.go.jp/kaiyou/db/tide/suisan/suisan.php?stn=NS
188413,KO,皇后,KOGO,長崎県,長崎市 小瀬戸町,32°43′N,129°50′E,-,E9125273221,https://www.data.jma.go.jp/kaiyou/db/tide/suisan/suisan.php?stn=KO
188431,KT,口之津,KUCHINOTSU,長崎県,南島原市 口之津町,32°36′N,130°12′E,-170.8(cm),E9125264692,https://www.data.jma.go.jp/kaiyou/db/tide/suisan/suisan.php?stn=KT
188606,HS,本渡瀬戸,HONDOSETO,熊本県,天草市 大門,32°26′N,130°13′E,-,E9125238481,https://www.data.jma.go.jp/kaiyou/db/tide/suisan/suisan.php?stn=HS
188631,RH,苓北,REIHOKU,熊本県,天草郡 苓北町 都呂々,32°28′N,130°2′E,-144.8(cm),E9125228997,https://www.data.jma.go.jp/kaiyou/db/tide/suisan/suisan.php?stn=RH
188433,FE,福江,FUKUE,長崎県,五島市 東浜町,32°42′N,128°51′E,-149.8(cm),E9124369853,https://www.data.jma.go.jp/kaiyou/db/tide/suisan/suisan.php?stn=FE
198702,MG,宮崎,MIYAZAKI,宮崎県,宮崎市 港１丁目,31°54′N,131°27′E,-,E9123758127,https://www.data.jma.go.jp/kaiyou/db/tide/suisan/suisan.php?stn=MG
198732,AB,油津,ABURATSU,宮崎県,日南市 大節,31°35′N,131°25′E,-95.3(cm),E9123724372,https://www.data.jma.go.jp/kaiyou/db/tide/suisan/suisan.php?stn=AB
198851,X6,志布志,SHIBUSHI,鹿児島県,志布志市 志布志町,31°29′N,131°7′E,-,E9123711112,https://www.data.jma.go.jp/kaiyou/db/tide/suisan/suisan.php?stn=X6
198831,KG,鹿児島,KAGOSHIMA,鹿児島県,鹿児島市 本港新町,31°36′N,130°34′E,-133.8(cm),E9122916518,https://www.data.jma.go.jp/kaiyou/db/tide/suisan/suisan.php?stn=KG
,O7,水俣,MINAMATA,熊本県,水俣市,32°12′N,130°22′E,-,E9122899935,https://www.data.jma.go.jp/kaiyou/db/tide/suisan/suisan.php?stn=O7
198804,ZJ,阿久根,AKUNE,鹿児島県,阿久根市 波留,32°1′N,130°11′E,-133.9(cm),E9122891645,https://www.data.jma.go.jp/kaiyou/db/tide/suisan/suisan.php?stn=ZJ
198836,QG,大泊,ODOMARI,鹿児島県,肝属郡 南大隅町 佐多馬籠,31°1′N,130°41′E,-124.5(cm),E9122651621,https://www.data.jma.go.jp/kaiyou/db/tide/suisan/suisan.php?stn=QG
198332,MK,枕崎,MAKURAZAKI,鹿児島県,枕崎市 松之尾町,31°16′N,130°18′E,-125.7(cm),E9122593424,https://www.data.jma.go.jp/kaiyou/db/tide/suisan/suisan.php?stn=MK
198837,QH,西之表,NISHINOOMOTE,鹿児島県,西之表市 西之表,30°44′N,131°0′E,-110.3(cm),E9122398893,https://www.data.jma.go.jp/kaiyou/db/tide/suisan/suisan.php?stn=QH
198833,TJ,種子島,TANEGASHIMA,鹿児島県,熊毛郡 中種子町 坂井,30°28′N,130°58′E,-115.1(cm),E9122368731,https://www.data.jma.go.jp/kaiyou/db/tide/suisan/suisan.php?stn=TJ
,MC,南鳥島,MINAMITORISHIMA,東京都,小笠原村 南鳥島,24°17′N,153°59′E,-30.8(cm),E6891438667,https://www.data.jma.go.jp/kaiyou/db/tide/suisan/suisan.php?stn=MC
124434,CC,父島,CHICHIJIMA,東京都,小笠原村 父島東町,27°6′N,142°12′E,-59.0(cm),E6874933918,https://www.data.jma.go.jp/kaiyou/db/tide/suisan/suisan.php?stn=CC
198838,QI,中之島,NAKANOSHIMA,鹿児島県,鹿児島郡 十島村 中之島,29°51′N,129°51′E,-114.1(cm),E6788876344,https://www.data.jma.go.jp/kaiyou/db/tide/suisan/suisan.php?stn=QI
198839,QJ,名瀬,NAZE,鹿児島県,奄美市 名瀬長浜町,28°24′N,129°30′E,-104.3(cm),E6788195573,https://www.data.jma.go.jp/kaiyou/db/tide/suisan/suisan.php?stn=QJ
198834,O9,奄美,AMAMI,鹿児島県,奄美市 名瀬小湊,28°19′N,129°32′E,-109.7(cm),E6788192658,https://www.data.jma.go.jp/kaiyou/db/tide/suisan/suisan.php?stn=O9
209231,DJ,南大東,MINAMIDAITO,沖縄県,島尻郡 南大東村 北,25°52′N,131°14′E,-66.3(cm),E6786142852,https://www.data.jma.go.jp/kaiyou/db/tide/suisan/suisan.php?stn=DJ
209181,NK,中城湾港,NAKAGUSUKUWANKO,沖縄県,沖縄市 海邦,26°20′N,127°50′E,-,E6784523452,https://www.data.jma.go.jp/kaiyou/db/tide/suisan/suisan.php?stn=NK
209131,NH,那覇,NAHA,沖縄県,那覇市 西,26°13′N,127°40′E,-110.5(cm),E6784287122,https://www.data.jma.go.jp/kaiyou/db/tide/suisan/suisan.php?stn=NH
209105,ZO,沖縄,OKINAWA,沖縄県,南城市 知念,26°11′N,127°49′E,-113.0(cm),E6784285696,https://www.data.jma.go.jp/kaiyou/db/tide/suisan/suisan.php?stn=ZO
209381,R1,平良,HIRARA,沖縄県,宮古島市 平良西里,24°49′N,125°17′E,-,E6773812123,https://www.data.jma.go.jp/kaiyou/db/tide/suisan/suisan.php?stn=R1
209431,IS,石垣,ISHIGAKI,沖縄県,石垣市 八島町２丁目,24°20′N,124°10′E,-91.2(cm),E6772653265,https://www.data.jma.go.jp/kaiyou/db/tide/suisan/suisan.php?stn=IS
,IJ,西表,IRIOMOTE,沖縄県,八重山郡 竹富町,24°21′N,123°45′E,-,E6772641531,https://www.data.jma.go.jp/kaiyou/db/tide/suisan/suisan.php?stn=IJ
209432,YJ,与那国,YONAGUNI,沖縄県,八重山郡 与那国町 久部良,24°27′N,122°57′E,-94.6(cm),E6772466682,https://www.data.jma.go.jp/kaiyou/db/tide/suisan/suisan.php?stn=YJ
